UMBRA-07                
1 58297U 23174AT  26191.11032914  .00007301  00000+0  45840-3 0  9992
2 58297  97.3783 246.0083 0002770  28.7099 331.4283 15.09560913146873
UMBRA-09                
1 60541U 24149CB  26190.21045289  .00010667  00000+0  51691-3 0  9999
2 60541  97.6970 277.8023 0001785 214.0416 146.0703 15.18723998104069
UMBRA-10                
1 60547U 24149CH  26189.81468238  .00010309  00000+0  49974-3 0  9996
2 60547  97.6970 277.4291 0001195 174.7318 185.3929 15.18720503104016
UMBRA-11                
1 66748U 25276CL  26191.18955175  .00015824  00000+0  58762-3 0  9993
2 66748  97.4194 265.6901 0002122 199.9758 160.1399 15.27646894 34009
UMBRA-12                
1 67371U 26004J   26190.47882728  .00003352  00000+0  35753-3 0  9998
2 67371  97.8021 188.9416 0007768  68.4929 291.7116 14.89504279 26628
