{"fetched_at":"2026-07-11T06:35:54.311Z","source":"https://celestrak.org/NORAD/elements/gp.php?NAME=UMBRA&FORMAT=JSON","constellation":"umbra","records":[{"OBJECT_NAME":"UMBRA-07","OBJECT_ID":"2023-174AT","EPOCH":"2026-07-10T02:38:52.437696","CLASSIFICATION_TYPE":"U","MEAN_MOTION":15.09560913,"ECCENTRICITY":0.00027707,"INCLINATION":97.3783,"RA_OF_ASC_NODE":246.0083,"ARG_OF_PERICENTER":28.7099,"MEAN_ANOMALY":331.4283,"EPHEMERIS_TYPE":0,"NORAD_CAT_ID":58297,"ELEMENT_SET_NO":999,"REV_AT_EPOCH":14687,"BSTAR":0.00045840469,"MEAN_MOTION_DOT":0.00007301,"MEAN_MOTION_DDOT":0},{"OBJECT_NAME":"UMBRA-09","OBJECT_ID":"2024-149CB","EPOCH":"2026-07-09T05:03:03.129696","CLASSIFICATION_TYPE":"U","MEAN_MOTION":15.18723998,"ECCENTRICITY":0.0001785,"INCLINATION":97.697,"RA_OF_ASC_NODE":277.8023,"ARG_OF_PERICENTER":214.0416,"MEAN_ANOMALY":146.0703,"EPHEMERIS_TYPE":0,"NORAD_CAT_ID":60541,"ELEMENT_SET_NO":999,"REV_AT_EPOCH":10406,"BSTAR":0.00051690564,"MEAN_MOTION_DOT":0.00010667,"MEAN_MOTION_DDOT":0},{"OBJECT_NAME":"UMBRA-10","OBJECT_ID":"2024-149CH","EPOCH":"2026-07-08T19:33:08.557632","CLASSIFICATION_TYPE":"U","MEAN_MOTION":15.18720503,"ECCENTRICITY":0.00011958,"INCLINATION":97.697,"RA_OF_ASC_NODE":277.4291,"ARG_OF_PERICENTER":174.7318,"MEAN_ANOMALY":185.3929,"EPHEMERIS_TYPE":0,"NORAD_CAT_ID":60547,"ELEMENT_SET_NO":999,"REV_AT_EPOCH":10401,"BSTAR":0.00049974411,"MEAN_MOTION_DOT":0.00010309,"MEAN_MOTION_DDOT":0},{"OBJECT_NAME":"UMBRA-11","OBJECT_ID":"2025-276CL","EPOCH":"2026-07-10T04:32:57.271200","CLASSIFICATION_TYPE":"U","MEAN_MOTION":15.27646894,"ECCENTRICITY":0.00021226,"INCLINATION":97.4194,"RA_OF_ASC_NODE":265.6901,"ARG_OF_PERICENTER":199.9758,"MEAN_ANOMALY":160.1399,"EPHEMERIS_TYPE":0,"NORAD_CAT_ID":66748,"ELEMENT_SET_NO":999,"REV_AT_EPOCH":3400,"BSTAR":0.00058761865,"MEAN_MOTION_DOT":0.00015824,"MEAN_MOTION_DDOT":0},{"OBJECT_NAME":"UMBRA-12","OBJECT_ID":"2026-004J","EPOCH":"2026-07-09T11:29:30.676992","CLASSIFICATION_TYPE":"U","MEAN_MOTION":14.89504279,"ECCENTRICITY":0.00077684,"INCLINATION":97.8021,"RA_OF_ASC_NODE":188.9416,"ARG_OF_PERICENTER":68.4929,"MEAN_ANOMALY":291.7116,"EPHEMERIS_TYPE":0,"NORAD_CAT_ID":67371,"ELEMENT_SET_NO":999,"REV_AT_EPOCH":2662,"BSTAR":0.00035752894,"MEAN_MOTION_DOT":0.00003352,"MEAN_MOTION_DDOT":0}]}
